CCSDS_OMM_VERS = 2.0
CREATION_DATE  = 
ORIGINATOR     = 

OBJECT_NAME    = YOTSUBA-KULOVER
OBJECT_ID      = 1998-067XN
CENTER_NAME    = EARTH
REF_FRAME      = TEME
TIME_SYSTEM    = UTC
MEAN_ELEMENT_THEORY = SGP/SGP4

EPOCH          = 2026-03-04T01:46:17.916672
MEAN_MOTION    = 15.77989263
ECCENTRICITY   = .0006098
INCLINATION    = 51.6208
RA_OF_ASC_NODE = 86.3668
ARG_OF_PERICENTER = 32.9747
MEAN_ANOMALY   = 327.1633

EPHEMERIS_TYPE = 0
CLASSIFICATION_TYPE = U
NORAD_CAT_ID   = 65941
ELEMENT_SET_NO = 999
REV_AT_EPOCH   = 2261
BSTAR          = .1272E-2
MEAN_MOTION_DOT = .226043E-2
MEAN_MOTION_DDOT = 0

CCSDS_OMM_VERS = 2.0
CREATION_DATE  = 
ORIGINATOR     = 

OBJECT_NAME    = BOTAN
OBJECT_ID      = 1998-067XP
CENTER_NAME    = EARTH
REF_FRAME      = TEME
TIME_SYSTEM    = UTC
MEAN_ELEMENT_THEORY = SGP/SGP4

EPOCH          = 2026-03-03T07:18:10.975680
MEAN_MOTION    = 16.26065139
ECCENTRICITY   = .00029265
INCLINATION    = 51.6040
RA_OF_ASC_NODE = 82.5602
ARG_OF_PERICENTER = 46.9281
MEAN_ANOMALY   = 313.1984

EPHEMERIS_TYPE = 0
CLASSIFICATION_TYPE = U
NORAD_CAT_ID   = 65942
ELEMENT_SET_NO = 999
REV_AT_EPOCH   = 2259
BSTAR          = .14502781E-2
MEAN_MOTION_DOT = .4760636E-1
MEAN_MOTION_DDOT = .12040774E-4

CCSDS_OMM_VERS = 2.0
CREATION_DATE  = 
ORIGINATOR     = 

OBJECT_NAME    = E-KAGAKU-1
OBJECT_ID      = 1998-067XQ
CENTER_NAME    = EARTH
REF_FRAME      = TEME
TIME_SYSTEM    = UTC
MEAN_ELEMENT_THEORY = SGP/SGP4

EPOCH          = 2026-03-04T01:51:08.074656
MEAN_MOTION    = 15.77722177
ECCENTRICITY   = .0006255
INCLINATION    = 51.6231
RA_OF_ASC_NODE = 86.4051
ARG_OF_PERICENTER = 40.9518
MEAN_ANOMALY   = 319.1952

EPHEMERIS_TYPE = 0
CLASSIFICATION_TYPE = U
NORAD_CAT_ID   = 65943
ELEMENT_SET_NO = 999
REV_AT_EPOCH   = 2261
BSTAR          = .12483E-2
MEAN_MOTION_DOT = .219013E-2
MEAN_MOTION_DDOT = 0

CCSDS_OMM_VERS = 2.0
CREATION_DATE  = 
ORIGINATOR     = 

OBJECT_NAME    = HRC MONOBLOCK CAMERA
OBJECT_ID      = 1998-067XR
CENTER_NAME    = EARTH
REF_FRAME      = TEME
TIME_SYSTEM    = UTC
MEAN_ELEMENT_THEORY = SGP/SGP4

EPOCH          = 2026-03-04T01:40:27.745248
MEAN_MOTION    = 15.61501169
ECCENTRICITY   = .0003424
INCLINATION    = 51.6271
RA_OF_ASC_NODE = 93.8827
ARG_OF_PERICENTER = 65.6945
MEAN_ANOMALY   = 294.4406

EPHEMERIS_TYPE = 0
CLASSIFICATION_TYPE = U
NORAD_CAT_ID   = 66052
ELEMENT_SET_NO = 999
REV_AT_EPOCH   = 2151
BSTAR          = .72884E-3
MEAN_MOTION_DOT = .63635E-3
MEAN_MOTION_DDOT = 0

CCSDS_OMM_VERS = 2.0
CREATION_DATE  = 
ORIGINATOR     = 

OBJECT_NAME    = HTV-X1
OBJECT_ID      = 2025-241A
CENTER_NAME    = EARTH
REF_FRAME      = TEME
TIME_SYSTEM    = UTC
MEAN_ELEMENT_THEORY = SGP/SGP4

EPOCH          = 2026-03-04T03:45:47.118240
MEAN_MOTION    = 15.48434477
ECCENTRICITY   = .0008201
INCLINATION    = 51.6316
RA_OF_ASC_NODE = 99.7104
ARG_OF_PERICENTER = 155.0339
MEAN_ANOMALY   = 205.1047

EPHEMERIS_TYPE = 0
CLASSIFICATION_TYPE = U
NORAD_CAT_ID   = 66174
ELEMENT_SET_NO = 999
REV_AT_EPOCH   = 55575
BSTAR          = .19684E-3
MEAN_MOTION_DOT = .10207E-3
MEAN_MOTION_DDOT = 0

CCSDS_OMM_VERS = 2.0
CREATION_DATE  = 
ORIGINATOR     = 

OBJECT_NAME    = SZ-21 MODULE
OBJECT_ID      = 2025-246C
CENTER_NAME    = EARTH
REF_FRAME      = TEME
TIME_SYSTEM    = UTC
MEAN_ELEMENT_THEORY = SGP/SGP4

EPOCH          = 2026-03-03T18:27:35.995968
MEAN_MOTION    = 15.68011820
ECCENTRICITY   = .00014472
INCLINATION    = 41.4730
RA_OF_ASC_NODE = 239.7930
ARG_OF_PERICENTER = 287.9355
MEAN_ANOMALY   = 72.1329

EPHEMERIS_TYPE = 0
CLASSIFICATION_TYPE = U
NORAD_CAT_ID   = 66515
ELEMENT_SET_NO = 999
REV_AT_EPOCH   = 1714
BSTAR          = .39281321E-3
MEAN_MOTION_DOT = .44751E-3
MEAN_MOTION_DDOT = 0

CCSDS_OMM_VERS = 2.0
CREATION_DATE  = 
ORIGINATOR     = 

OBJECT_NAME    = SHENZHOU-22
OBJECT_ID      = 2025-272A
CENTER_NAME    = EARTH
REF_FRAME      = TEME
TIME_SYSTEM    = UTC
MEAN_ELEMENT_THEORY = SGP/SGP4

EPOCH          = 2026-03-04T03:32:44.323872
MEAN_MOTION    = 15.60380094
ECCENTRICITY   = .0006828
INCLINATION    = 41.4658
RA_OF_ASC_NODE = 241.8750
ARG_OF_PERICENTER = 240.6834
MEAN_ANOMALY   = 119.3323

EPHEMERIS_TYPE = 0
CLASSIFICATION_TYPE = U
NORAD_CAT_ID   = 66645
ELEMENT_SET_NO = 999
REV_AT_EPOCH   = 26825
BSTAR          = .35996E-3
MEAN_MOTION_DOT = .30185E-3
MEAN_MOTION_DDOT = 0

CCSDS_OMM_VERS = 2.0
CREATION_DATE  = 
ORIGINATOR     = 

OBJECT_NAME    = SOYUZ-MS 28
OBJECT_ID      = 2025-275A
CENTER_NAME    = EARTH
REF_FRAME      = TEME
TIME_SYSTEM    = UTC
MEAN_ELEMENT_THEORY = SGP/SGP4

EPOCH          = 2026-03-04T03:45:47.118240
MEAN_MOTION    = 15.48434477
ECCENTRICITY   = .0008201
INCLINATION    = 51.6316
RA_OF_ASC_NODE = 99.7104
ARG_OF_PERICENTER = 155.0339
MEAN_ANOMALY   = 205.1047

EPHEMERIS_TYPE = 0
CLASSIFICATION_TYPE = U
NORAD_CAT_ID   = 66664
ELEMENT_SET_NO = 999
REV_AT_EPOCH   = 55591
BSTAR          = .19684E-3
MEAN_MOTION_DOT = .10207E-3
MEAN_MOTION_DDOT = 0

CCSDS_OMM_VERS = 2.0
CREATION_DATE  = 
ORIGINATOR     = 

OBJECT_NAME    = DUPLEX
OBJECT_ID      = 1998-067XS
CENTER_NAME    = EARTH
REF_FRAME      = TEME
TIME_SYSTEM    = UTC
MEAN_ELEMENT_THEORY = SGP/SGP4

EPOCH          = 2026-03-04T03:02:58.036704
MEAN_MOTION    = 15.55805155
ECCENTRICITY   = .0002066
INCLINATION    = 51.6284
RA_OF_ASC_NODE = 97.2659
ARG_OF_PERICENTER = 91.2165
MEAN_ANOMALY   = 268.9063

EPHEMERIS_TYPE = 0
CLASSIFICATION_TYPE = U
NORAD_CAT_ID   = 66906
ELEMENT_SET_NO = 999
REV_AT_EPOCH   = 1426
BSTAR          = .56459E-3
MEAN_MOTION_DOT = .39457E-3
MEAN_MOTION_DDOT = 0

CCSDS_OMM_VERS = 2.0
CREATION_DATE  = 
ORIGINATOR     = 

OBJECT_NAME    = ISS OBJECT XT
OBJECT_ID      = 1998-067XT
CENTER_NAME    = EARTH
REF_FRAME      = TEME
TIME_SYSTEM    = UTC
MEAN_ELEMENT_THEORY = SGP/SGP4

EPOCH          = 2026-03-04T02:27:54.145728
MEAN_MOTION    = 15.67342858
ECCENTRICITY   = .0004672
INCLINATION    = 51.6245
RA_OF_ASC_NODE = 94.0932
ARG_OF_PERICENTER = 41.2658
MEAN_ANOMALY   = 318.8690

EPHEMERIS_TYPE = 0
CLASSIFICATION_TYPE = U
NORAD_CAT_ID   = 66907
ELEMENT_SET_NO = 999
REV_AT_EPOCH   = 1430
BSTAR          = .15595E-2
MEAN_MOTION_DOT = .17488E-2
MEAN_MOTION_DDOT = 0

CCSDS_OMM_VERS = 2.0
CREATION_DATE  = 
ORIGINATOR     = 

OBJECT_NAME    = ISS OBJECT XU
OBJECT_ID      = 1998-067XU
CENTER_NAME    = EARTH
REF_FRAME      = TEME
TIME_SYSTEM    = UTC
MEAN_ELEMENT_THEORY = SGP/SGP4

EPOCH          = 2026-03-04T02:25:50.987712
MEAN_MOTION    = 15.67438854
ECCENTRICITY   = .0004715
INCLINATION    = 51.6244
RA_OF_ASC_NODE = 94.0803
ARG_OF_PERICENTER = 45.5168
MEAN_ANOMALY   = 314.6213

EPHEMERIS_TYPE = 0
CLASSIFICATION_TYPE = U
NORAD_CAT_ID   = 66908
ELEMENT_SET_NO = 999
REV_AT_EPOCH   = 1430
BSTAR          = .15859E-2
MEAN_MOTION_DOT = .178631E-2
MEAN_MOTION_DDOT = 0

CCSDS_OMM_VERS = 2.0
CREATION_DATE  = 
ORIGINATOR     = 

OBJECT_NAME    = SILVERSAT
OBJECT_ID      = 1998-067XV
CENTER_NAME    = EARTH
REF_FRAME      = TEME
TIME_SYSTEM    = UTC
MEAN_ELEMENT_THEORY = SGP/SGP4

EPOCH          = 2026-03-04T02:41:11.781024
MEAN_MOTION    = 15.69884457
ECCENTRICITY   = .0005539
INCLINATION    = 51.6238
RA_OF_ASC_NODE = 93.4007
ARG_OF_PERICENTER = 42.4884
MEAN_ANOMALY   = 317.6541

EPHEMERIS_TYPE = 0
CLASSIFICATION_TYPE = U
NORAD_CAT_ID   = 66909
ELEMENT_SET_NO = 999
REV_AT_EPOCH   = 1431
BSTAR          = .17275E-2
MEAN_MOTION_DOT = .216262E-2
MEAN_MOTION_DDOT = 0

